STARLINK-2756
1 28683C 21044AX  21325.18835692  .00005894  00000-0  39482-3 0  3253
2 28683  53.0544 277.3685 0002538  47.0330  33.8693 15.06397423    18
